LUME 1                  
1 43908U 18111AJ  23004.62312780  .00023733  00000+0  68704-3 0  9999
2 43908  97.1654 251.3475 0018329  73.9367 286.3894 15.35416847224207
AOBA VELOX-IV           
1 43940U 19003J   23005.57214580  .00067734  00000+0  10980-2 0  9991
2 43940  97.1060  41.9227 0013484 123.3403 236.9143 15.52445228221300
MOVE-IIB                
1 44398U 19038N   22364.13309402  .00019028  00000+0  76981-3 0  9991
2 44398  97.6498 336.2487 0018884 162.3874 197.8024 15.24592615192784
SONATE                  
1 44400U 19038Q   23004.88761775  .00008685  00000+0  44006-3 0  9994
2 44400  97.6658 339.8860 0023100 154.0979 206.1416 15.16989594193441
LUCKY-7                 
1 44406U 19038W   23002.49600738  .00008046  00000+0  39256-3 0  9998
2 44406  97.6632 338.2643 0021847 158.4573 201.7584 15.18361452193137
BEESAT 9                
1 44412U 19038AC  23004.88461943  .00016821  00000+0  75692-3 0  9997
2 44412  97.6593 341.4458 0019301 151.5456 208.6837 15.21001975193262
JAISAT-1                
1 44419U 19038F   23004.87458759  .00016885  00000+0  75044-3 0  9995
2 44419  97.6595 342.4243 0018443 148.1107 212.1249 15.21441929193630
DUCHIFAT-3              
1 44854U 19089C   23005.31187536  .00006582  00000+0  48707-3 0  9995
2 44854  36.9660 342.2748 0005914  57.7693  51.0842 15.02851685168290
EYESAT-NANO             
1 44877U 19092E   23004.79372399  .00026287  00000+0  96572-3 0  9995
2 44877  97.4576 193.4251 0011006  14.4053 345.7498 15.27841311169043
ORBITAL FACTORY 2 (OF-2)
1 45113U 19071C   23005.35834846  .00087510  00000+0  93268-3 0  9994
2 45113  51.6319 135.9539 0007892 215.7478 144.2989 15.63190877164731
M2 PATHFINDER           
1 45727U 20037E   23004.91072536  .00002609  00000+0  25807-3 0  9990
2 45727  97.7414 181.9346 0013773  87.0103 273.2705 14.92684186136871
NETSAT-4                
1 46504U 20068U   23004.62936434  .00005237  00000+0  37449-3 0  9997
2 46504  97.7435 309.4081 0012018  13.5848 346.5701 15.04841427124281
NETSAT-3                
1 46505U 20068V   23004.71735851  .00005722  00000+0  40940-3 0  9997
2 46505  97.7419 309.3801 0011333  20.1329 340.0347 15.04785921124304
NETSAT-1                
1 46506U 20068W   23004.40898519  .00004189  00000+0  30166-3 0  9990
2 46506  97.7439 308.9836 0010386  29.7523 330.4248 15.04711344124253
NETSAT-2                
1 46507U 20068X   23004.48616410  .00004975  00000+0  35708-3 0  9997
2 46507  97.7428 309.0521 0009729  39.5041 320.6883 15.04746432124216
SAI-1 NANOCONNECT-2     
1 47701U 21015C   23005.16480009  .00026648  00000+0  82599-3 0  9997
2 47701  97.4066  86.6329 0010883  96.2993 263.9489 15.33345730103059
WILDTRACKCUBE-SIMBA     
1 47941U 21022K   23005.56887343  .00005915  00000+0  37653-3 0  9992
2 47941  97.5140 265.7542 0020249 170.1753 274.9532 15.08982793 98455
BEESAT-6                
1 47957U 21022AB  23004.44659116  .00013487  00000+0  78658-3 0  9993
2 47957  97.5129 265.2883 0018833 171.7149 188.4396 15.11934683 98135
SMOG-1                  
1 47964U 21022AJ  23005.48990700  .00012182  00000+0  68009-3 0  9993
2 47964  97.5153 267.8548 0017542 155.6365 204.5700 15.13549250 97405
MMSATS-1                
1 47976U 98067SJ  23005.50477146  .00073272  00000+0  48893-3 0  9992
2 47976  51.6369  21.1362 0003824  28.9104  46.1764 15.74673796101905
BCCSAT-1                
1 48041U 21022AK  23005.47406424  .00012046  00000+0  69633-3 0  9997
2 48041  97.5155 267.1692 0014558 154.2482 205.9476 15.12343074 97338
BEESAT-5                
1 48083U 21022AM  23004.66361640  .00017251  00000+0  98905-3 0  9990
2 48083  97.5098 265.5559 0018691 170.7669 189.3909 15.12495066 97308
BEESAT-7                
1 48084U 21022AN  23005.15254568  .00014637  00000+0  84683-3 0  9999
2 48084  97.5118 266.0210 0018866 169.1452 191.0189 15.12202018 96962
BEESAT-8                
1 48085U 21022AP  23004.66367018  .00011241  00000+0  66683-3 0  9998
2 48085  97.5132 265.4568 0019128 171.6663 188.4888 15.11358440 97442
LEDSAT                  
1 49069U 21073D   23005.23480758  .00006199  00000+0  37670-3 0  9998
2 49069  97.5048  79.1199 0025139 325.1367  34.8215 15.10565220 76278
HSU-SAT1                
1 53462U 98067UB  23005.10177810  .00112264  00000+0  98556-3 0  9996
2 53462  51.6357  47.8923 0007478 334.7566  25.3064 15.67938848 22724
FUTABA                  
1 53463U 98067UC  23005.13632649  .00173645  00000+0  12095-2 0  9999
2 53463  51.6328  45.8518 0007746 345.1411  14.9359 15.73257403 22756
TUMNANOSAT              
1 53464U 98067UD  23005.28351540  .00262894  00000+0  13421-2 0  9993
2 53464  51.6329  43.0680 0008135   0.1412 359.9590 15.80023248 22801
1998-067UL              
1 54534U 98067UL  23005.39641978  .00044332  00000+0  68738-3 0  9998
2 54534  51.6419  54.3805 0003677 264.6343  95.4228 15.53548775  5347
1998-067UM              
1 54535U 98067UM  23005.60939343  .00058452  00000+0  88764-3 0  9998
2 54535  51.6442  53.2608 0003273 264.6290 231.7582 15.54003586  5374
1998-067UN              
1 54536U 98067UN  23005.61631551  .00045733  00000+0  71587-3 0  9993
2 54536  51.6445  53.3080 0003721 261.1604 234.6367 15.53271831  5330
1998-067UP              
1 54537U 98067UP  23005.61248704  .00050807  00000+0  78437-3 0  9997
2 54537  51.6449  53.2848 0003554 265.1253 229.9448 15.53608579  5378
MARIO                   
1 55123U 98067UQ  23005.50166129  .00047183  00000+0  79299-3 0  9997
2 55123  51.6424  54.3327 0002898 283.3419  76.7247 15.51278437  1165
1998-067UR              
1 55124U 98067UR  23004.85763783  .00080215  00000+0  13395-2 0  9991
2 55124  51.6428  57.5318 0002912 278.3286  81.7374 15.51228684  1052
1998-067US              
1 55125U 98067US  23004.85777170  .00052709  00000+0  89062-3 0  9999
2 55125  51.6430  57.5318 0003767 275.6389  84.4171 15.51076509  1073
1998-067UT              
1 55126U 98067UT  23005.50224715  .00037774  00000+0  64216-3 0  9994
2 55126  51.6427  54.3363 0003734 277.5618  82.4947 15.51055312  1174
1998-067UU              
1 55127U 98067UU  23005.55608367  .00503330  00000+0  66161-2 0  9995
2 55127  51.6401  53.9457 0001038   1.5505 358.5490 15.56201265  1143
1998-067UV              
1 55128U 98067UV  23005.56763947  .00042937  00000+0  73317-3 0  9996
2 55128  51.6424  54.0229 0004680 259.2702 100.7760 15.50867443  1175
1998-067UW              
1 55129U 98067UW  23004.85940111  .00028814  00000+0  50111-3 0  9993
2 55129  51.6426  57.5430 0002645 241.7081 118.3642 15.50553708  1063
1998-067UX              
1 55130U 98067UX  23005.37509064  .00021494  00000+0  37629-3 0  9997
2 55130  51.6424  54.9875 0002635 243.8798 116.1920 15.50542508  1098
BEIJING 1               
1 28890U 05043A   23005.37233903  .00000345  00000+0  78777-4 0  9990
2 28890  98.1381 129.3563 0013972 261.4095  98.5559 14.61576915916638
HJ-1A                   
1 33320U 08041A   23005.17656649  .00000673  00000+0  99764-4 0  9992
2 33320  97.6594  33.5804 0019781 298.1220  61.8013 14.78044759772189
HJ-1B                   
1 33321U 08041B   23005.59937399  .00001509  00000+0  21348-3 0  9994
2 33321  97.6742  37.9535 0033196 314.9840  44.8697 14.78144479772241
YAOGAN 4                
1 33446U 08061A   23005.53162441  .00000820  00000+0  12139-3 0  9999
2 33446  97.8382 304.7313 0015630 195.2685 164.8056 14.77657661759439
DEIMOS-1                
1 35681U 09041A   23005.19986146  .00000580  00000+0  99161-4 0  9993
2 35681  97.6915 210.7017 0000848   9.1226 350.9997 14.72224731721454
UK-DMC 2                
1 35683U 09041C   23005.37653132  .00000857  00000+0  14499-3 0  9998
2 35683  97.7097 172.7494 0001436  65.6958 294.4403 14.71668817721200
RISAT 1                 
1 38248U 12017A   23005.49753911  .00005236  00000+0  29654-3 0  9999
2 38248  97.5480  19.7727 0002252 295.1523  64.9474 15.13452269589386
DMC3-FM1                
1 40715U 15032A   23005.31475325  .00000755  00000+0  10088-3 0  9994
2 40715  97.8211 252.8693 0004932 210.6293 149.4631 14.82346613403196
DMC3-FM2                
1 40716U 15032B   23005.33800489  .00000763  00000+0  10180-3 0  9992
2 40716  97.8257 253.6395 0006706 216.9617 143.1131 14.82360601403206
DMC3-FM3                
1 40717U 15032C   23005.29119605  .00000768  00000+0  10253-3 0  9997
2 40717  97.8298 254.5957 0008280 216.3021 143.7623 14.82336898403199
NOAA 15                 
1 25338U 98030A   23005.54333446  .00000178  00000+0  92193-4 0  9996
2 25338  98.6247  37.2372 0011336  70.7527 289.4879 14.26217019282074
DMSP 5D-3 F15 (USA 147) 
1 25991U 99067A   23005.57329738  .00000189  00000+0  11779-3 0  9996
2 25991  99.0654   5.7466 0009783 341.7121 183.2712 14.16620733192408
DMSP 5D-3 F16 (USA 172) 
1 28054U 03048A   23005.46789223  .00000138  00000+0  97011-4 0  9998
2 28054  99.0034   2.4763 0008199 105.1759  51.9461 14.13722916991565
NOAA 18                 
1 28654U 05018A   23005.47270709  .00000220  00000+0  14222-3 0  9992
2 28654  98.9292  80.5430 0015150 119.3746 240.8940 14.12833202908593
METEOSAT-9 (MSG-2)      
1 28912U 05049B   23005.23868969  .00000134  00000+0  00000+0 0  9997
2 28912   6.4762  64.9584 0001660 189.7329 341.5606  1.00266985 62456
EWS-G1 (GOES 13)        
1 29155U 06018A   23004.53781887  .00000045  00000+0  00000+0 0  9990
2 29155   1.0941  93.0847 0006377 159.6391 106.5374  1.00278407 30746
DMSP 5D-3 F17 (USA 191) 
1 29522U 06050A   23005.50715756  .00000176  00000+0  11506-3 0  9996
2 29522  98.7601  21.7116 0010549  50.1555 310.0544 14.14156594834463
FENGYUN 3A              
1 32958U 08026A   23005.30945230  .00000126  00000+0  80647-4 0  9996
2 32958  98.5330 324.9817 0009124 153.2518 206.9130 14.18778024756957
FENGYUN 2E              
1 33463U 08066A   23004.92168848 -.00000198  00000+0  00000+0 0  9991
2 33463   6.3544  64.1065 0001588 262.8692 195.8937  1.00267867 51467
